start=new Date('2022-09-06T00:00:00.000Z').valueOf();
sats=[{"ARG_OF_PERICENTER":"90.7781","EPOCH":"2022-09-05T15:15:50.069088","ELEMENT_SET_NO":"999","PERIAPSIS":"546.136","FILE":"3559723","SITE":"AFETR","COUNTRY_CODE":"US","MEAN_ELEMENT_THEORY":"SGP4","RCS_SIZE":"LARGE","CLASSIFICATION_TYPE":"U","ECCENTRICITY":"0.00015290","APOAPSIS":"548.254","MEAN_MOTION":"15.06405937","MEAN_MOTION_DDOT":"0.0000000000000","MEAN_MOTION_DOT":"0.00000285","TLE_LINE2":"2 47382  53.0545  22.5000 0001529  90.7781 269.3383 15.06405937 90379","BSTAR":"0.00003801000000","INCLINATION":"53.0545","OBJECT_TYPE":"PAYLOAD","REV_AT_EPOCH":"9037","MEAN_ANOMALY":"269.3383","PERIOD":"95.592","NORAD_CAT_ID":"47382","OBJECT_NAME":"STARLINK-2102","SEMIMAJOR_AXIS":"6925.330","EPHEMERIS_TYPE":"0","OBJECT_ID":"2021-005AK","REF_FRAME":"TEME","RA_OF_ASC_NODE":"22.5000","TLE_LINE1":"1 47382U 21005AK  22248.63599617  .00000285  00000-0  38010-4 0  9997","DECAY_DATE":null,"GP_ID":"211832735","CENTER_NAME":"EARTH","LAUNCH_DATE":"2021-01-20","TIME_SYSTEM":"UTC"},{"MEAN_ANOMALY":"272.1233","PERIOD":"95.592","NORAD_CAT_ID":"47383","REV_AT_EPOCH":"9052","RA_OF_ASC_NODE":"12.4192","TLE_LINE1":"1 47383U 21005AL  22248.65440271  .00000841  00000-0  75324-4 0  9998","DECAY_DATE":null,"GP_ID":"211832486","CENTER_NAME":"EARTH","LAUNCH_DATE":"2021-01-20","TIME_SYSTEM":"UTC","OBJECT_NAME":"STARLINK-2103","SEMIMAJOR_AXIS":"6925.332","EPHEMERIS_TYPE":"0","OBJECT_ID":"2021-005AL","REF_FRAME":"TEME","ELEMENT_SET_NO":"999","EPOCH":"2022-09-05T15:42:20.394144","PERIAPSIS":"545.994","FILE":"3559723","SITE":"AFETR","ARG_OF_PERICENTER":"87.9955","BSTAR":"0.00007532400000","TLE_LINE2":"2 47383  53.0565  12.4192 0001737  87.9955 272.1233 15.06405402 90524","INCLINATION":"53.0565","OBJECT_TYPE":"PAYLOAD","COUNTRY_CODE":"US","MEAN_ELEMENT_THEORY":"SGP4","RCS_SIZE":"LARGE","CLASSIFICATION_TYPE":"U","APOAPSIS":"548.400","MEAN_MOTION":"15.06405402","ECCENTRICITY":"0.00017370","MEAN_MOTION_DDOT":"0.0000000000000","MEAN_MOTION_DOT":"0.00000841"},{"ARG_OF_PERICENTER":"81.9462","SITE":"AFETR","FILE":"3559723","PERIAPSIS":"546.240","EPOCH":"2022-09-05T16:30:10.724832","ELEMENT_SET_NO":"999","MEAN_MOTION_DDOT":"0.0000000000000","MEAN_MOTION_DOT":"0.00000465","MEAN_MOTION":"15.06409832","APOAPSIS":"548.127","ECCENTRICITY":"0.00013630","MEAN_ELEMENT_THEORY":"SGP4","RCS_SIZE":"LARGE","CLASSIFICATION_TYPE":"U","COUNTRY_CODE":"US","INCLINATION":"53.0545","OBJECT_TYPE":"PAYLOAD","TLE_LINE2":"2 47384  53.0545  22.4967 0001363  81.9462 278.1682 15.06409832 90385","BSTAR":"0.00005007600000","REV_AT_EPOCH":"9038","NORAD_CAT_ID":"47384","PERIOD":"95.592","MEAN_ANOMALY":"278.1682","EPHEMERIS_TYPE":"0","REF_FRAME":"TEME","OBJECT_ID":"2021-005AM","SEMIMAJOR_AXIS":"6925.318","OBJECT_NAME":"STARLINK-2104","LAUNCH_DATE":"2021-01-20","TIME_SYSTEM":"UTC","GP_ID":"211833737","CENTER_NAME":"EARTH","DECAY_DATE":null,"RA_OF_ASC_NODE":"22.4967","TLE_LINE1":"1 47384U 21005AM  22248.68762413  .00000465  00000-0  50076-4 0  9996"},{"TIME_SYSTEM":"UTC","LAUNCH_DATE":"2021-01-20","CENTER_NAME":"EARTH","GP_ID":"211833985","DECAY_DATE":null,"TLE_LINE1":"1 47385U 21005AN  22248.68391494  .00002513  00000-0  18750-3 0  9992","RA_OF_ASC_NODE":"22.2819","OBJECT_ID":"2021-005AN","REF_FRAME":"TEME","EPHEMERIS_TYPE":"0","SEMIMAJOR_AXIS":"6925.329","OBJECT_NAME":"STARLINK-2105","NORAD_CAT_ID":"47385","PERIOD":"95.592","MEAN_ANOMALY":"278.6094","REV_AT_EPOCH":"9038","OBJECT_TYPE":"PAYLOAD","INCLINATION":"53.0555","BSTAR":"0.00018750000000","TLE_LINE2":"2 47385  53.0555  22.2819 0001455  81.5060 278.6094 15.06406339 90384","MEAN_MOTION_DOT":"0.00002513","MEAN_MOTION_DDOT":"0.0000000000000","APOAPSIS":"548.202","ECCENTRICITY":"0.00014550","MEAN_MOTION":"15.06406339","CLASSIFICATION_TYPE":"U","RCS_SIZE":"LARGE","MEAN_ELEMENT_THEORY":"SGP4","COUNTRY_CODE":"US","SITE":"AFETR","PERIAPSIS":"546.186","FILE":"3559723","ELEMENT_SET_NO":"999","EPOCH":"2022-09-05T16:24:50.250816","ARG_OF_PERICENTER":"81.5060"},{"INCLINATION":"53.0559","OBJECT_TYPE":"PAYLOAD","TLE_LINE2":"2 47386  53.0559  22.4467 0001342  86.1372 273.9770 15.06406995 90389","BSTAR":"0.00002046800000","APOAPSIS":"548.121","ECCENTRICITY":"0.00013420","MEAN_MOTION":"15.06406995","MEAN_MOTION_DDOT":"0.0000000000000","MEAN_MOTION_DOT":"0.00000023","COUNTRY_CODE":"US","MEAN_ELEMENT_THEORY":"SGP4","RCS_SIZE":"LARGE","CLASSIFICATION_TYPE":"U","SITE":"AFETR","ELEMENT_SET_NO":"999","EPOCH":"2022-09-05T15:31:45.013728","PERIAPSIS":"546.263","FILE":"3559723","ARG_OF_PERICENTER":"86.1372","GP_ID":"211832236","CENTER_NAME":"EARTH","LAUNCH_DATE":"2021-01-20","TIME_SYSTEM":"UTC","RA_OF_ASC_NODE":"22.4467","TLE_LINE1":"1 47386U 21005AP  22248.64704877  .00000023  00000-0  20468-4 0  9996","DECAY_DATE":null,"SEMIMAJOR_AXIS":"6925.327","EPHEMERIS_TYPE":"0","OBJECT_ID":"2021-005AP","REF_FRAME":"TEME","OBJECT_NAME":"STARLINK-2106","NORAD_CAT_ID":"47386","MEAN_ANOMALY":"273.9770","PERIOD":"95.592","REV_AT_EPOCH":"9038"},{"TLE_LINE2":"2 47387  53.0545  51.9067 0001534  90.4338 269.6827 15.06403717 89978","BSTAR":"0.00074614000000","OBJECT_TYPE":"PAYLOAD","INCLINATION":"53.0545","COUNTRY_CODE":"US","CLASSIFICATION_TYPE":"U","RCS_SIZE":"LARGE","MEAN_ELEMENT_THEORY":"SGP4","APOAPSIS":"548.265","MEAN_MOTION":"15.06403717","ECCENTRICITY":"0.00015340","MEAN_MOTION_DOT":"0.00010851","MEAN_MOTION_DDOT":"0.0000000000000","ELEMENT_SET_NO":"999","EPOCH":"2022-09-05T18:22:56.491968","FILE":"3559723","PERIAPSIS":"546.140","SITE":"AFETR","ARG_OF_PERICENTER":"90.4338","TLE_LINE1":"1 47387U 21005AQ  22248.76593162  .00010851  00000-0  74614-3 0  9994","RA_OF_ASC_NODE":"51.9067","DECAY_DATE":null,"CENTER_NAME":"EARTH","GP_ID":"211832986","TIME_SYSTEM":"UTC","LAUNCH_DATE":"2021-01-20","OBJECT_NAME":"STARLINK-2108","SEMIMAJOR_AXIS":"6925.337","OBJECT_ID":"2021-005AQ","REF_FRAME":"TEME","EPHEMERIS_TYPE":"0","MEAN_ANOMALY":"269.6827","PERIOD":"95.592","NORAD_CAT_ID":"47387","REV_AT_EPOCH":"8997"},{"MEAN_ANOMALY":"274.2674","PERIOD":"95.591","NORAD_CAT_ID":"47388","REV_AT_EPOCH":"8997","TLE_LINE1":"1 47388U 21005AR  22248.78067107  .00004183  00000-0  29946-3 0  9991","RA_OF_ASC_NODE":"51.8388","DECAY_DATE":null,"CENTER_NAME":"EARTH","GP_ID":"211833238","TIME_SYSTEM":"UTC","LAUNCH_DATE":"2021-01-20","OBJECT_NAME":"STARLINK-2109","SEMIMAJOR_AXIS":"6925.309","OBJECT_ID":"2021-005AR","REF_FRAME":"TEME","EPHEMERIS_TYPE":"0","EPOCH":"2022-09-05T18:44:09.980448","ELEMENT_SET_NO":"999","FILE":"3559723","PERIAPSIS":"546.151","SITE":"AFETR","ARG_OF_PERICENTER":"85.8484","BSTAR":"0.00029946000000","TLE_LINE2":"2 47388  53.0541  51.8388 0001477  85.8484 274.2674 15.06412941 89977","OBJECT_TYPE":"PAYLOAD","INCLINATION":"53.0541","COUNTRY_CODE":"US","CLASSIFICATION_TYPE":"U","RCS_SIZE":"LARGE","MEAN_ELEMENT_THEORY":"SGP4","ECCENTRICITY":"0.00014770","APOAPSIS":"548.197","MEAN_MOTION":"15.06412941","MEAN_MOTION_DOT":"0.00004183","MEAN_MOTION_DDOT":"0.0000000000000"},{"LAUNCH_DATE":"2021-01-20","TIME_SYSTEM":"UTC","GP_ID":"211833486","CENTER_NAME":"EARTH","DECAY_DATE":null,"RA_OF_ASC_NODE":"31.6414","TLE_LINE1":"1 47389U 21005AS  22248.82579756 -.00002279  00000-0 -13405-3 0  9994","EPHEMERIS_TYPE":"0","OBJECT_ID":"2021-005AS","REF_FRAME":"TEME","SEMIMAJOR_AXIS":"6925.314","OBJECT_NAME":"STARLINK-2110","NORAD_CAT_ID":"47389","PERIOD":"95.591","MEAN_ANOMALY":"242.2002","REV_AT_EPOCH":"9026","INCLINATION":"53.0576","OBJECT_TYPE":"PAYLOAD","TLE_LINE2":"2 47389  53.0576  31.6414 0002283 117.9218 242.2002 15.06411226 90269","BSTAR":"-0.00013405000000","MEAN_MOTION_DDOT":"0.0000000000000","MEAN_MOTION_DOT":"-0.00002279","APOAPSIS":"548.760","MEAN_MOTION":"15.06411226","ECCENTRICITY":"0.00022830","MEAN_ELEMENT_THEORY":"SGP4","CLASSIFICATION_TYPE":"U","RCS_SIZE":"LARGE","COUNTRY_CODE":"US","SITE":"AFETR","FILE":"3559723","PERIAPSIS":"545.598","ELEMENT_SET_NO":"999","EPOCH":"2022-09-05T19:49:08.909184","ARG_OF_PERICENTER":"117.9218"},{"SEMIMAJOR_AXIS":"6925.311","EPHEMERIS_TYPE":"0","OBJECT_ID":"2021-005AT","REF_FRAME":"TEME","OBJECT_NAME":"STARLINK-2111","GP_ID":"211832736","CENTER_NAME":"EARTH","TIME_SYSTEM":"UTC","LAUNCH_DATE":"2021-01-20","RA_OF_ASC_NODE":"51.9652","TLE_LINE1":"1 47390U 21005AT  22248.75486141  .00001053  00000-0  89530-4 0  9993","DECAY_DATE":null,"REV_AT_EPOCH":"8997","NORAD_CAT_ID":"47390","MEAN_ANOMALY":"269.0524","PERIOD":"95.591","APOAPSIS":"548.023","ECCENTRICITY":"0.00012220","MEAN_MOTION":"15.06412165","MEAN_MOTION_DDOT":"0.0000000000000","MEAN_MOTION_DOT":"0.00001053","COUNTRY_CODE":"US","MEAN_ELEMENT_THEORY":"SGP4","CLASSIFICATION_TYPE":"U","RCS_SIZE":"LARGE","INCLINATION":"53.0551","OBJECT_TYPE":"PAYLOAD","BSTAR":"0.00008953000000","TLE_LINE2":"2 47390  53.0551  51.9652 0001222  91.0605 269.0524 15.06412165 89972","ARG_OF_PERICENTER":"91.0605","SITE":"AFETR","ELEMENT_SET_NO":"999","EPOCH":"2022-09-05T18:07:00.025824","FILE":"3559723","PERIAPSIS":"546.330"},{"EPOCH":"2022-09-05T16:44:42.406656","ELEMENT_SET_NO":"999","FILE":"3559723","PERIAPSIS":"546.189","SITE":"AFETR","ARG_OF_PERICENTER":"86.3676","BSTAR":"-0.00001850700000","TLE_LINE2":"2 47391  53.0553  22.2195 0001445  86.3676 273.7478 15.06407774 90387","INCLINATION":"53.0553","OBJECT_TYPE":"PAYLOAD","COUNTRY_CODE":"US","MEAN_ELEMENT_THEORY":"SGP4","RCS_SIZE":"LARGE","CLASSIFICATION_TYPE":"U","APOAPSIS":"548.190","ECCENTRICITY":"0.00014450","MEAN_MOTION":"15.06407774","MEAN_MOTION_DDOT":"0.0000000000000","MEAN_MOTION_DOT":"-0.00000557","MEAN_ANOMALY":"273.7478","PERIOD":"95.592","NORAD_CAT_ID":"47391","REV_AT_EPOCH":"9038","RA_OF_ASC_NODE":"22.2195","TLE_LINE1":"1 47391U 21005AU  22248.69771304 -.00000557  00000-0 -18507-4 0  9991","DECAY_DATE":null,"GP_ID":"211832487","CENTER_NAME":"EARTH","TIME_SYSTEM":"UTC","LAUNCH_DATE":"2021-01-20","OBJECT_NAME":"STARLINK-2112","SEMIMAJOR_AXIS":"6925.325","EPHEMERIS_TYPE":"0","OBJECT_ID":"2021-005AU","REF_FRAME":"TEME"}];
